ORBCOMM FM33            
1 25983U 99065D   24123.50336432  .00001126  00000+0  41835-3 0  9997
2 25983  45.0269 147.9028 0007599 169.3762 345.0590 14.37634557276916
ORBCOMM FM36            
1 25984U 99065E   24123.98849299  .00001465  00000+0  55326-3 0  9996
2 25984  45.0384 230.9778 0001796  19.9060 340.1858 14.35529618276017
ORBCOMM FM35            
1 25985U 99065F   24124.37626595  .00001223  00000+0  47364-3 0  9998
2 25985  45.0395 231.7728 0003653 173.3678 186.7218 14.35110981276066
ORBCOMM FM34            
1 25986U 99065G   24124.55538175  .00001116  00000+0  43705-3 0  9991
2 25986  45.0389 231.4619 0002475 114.0086 246.1021 14.35078171276058
ORBCOMM FM38            
1 33060U 08031A   24123.24813840  .00002438  00000+0  36737-3 0  9991
2 33060  48.4397 107.9091 0005094  74.1078 286.0397 14.77459596853908
ORBCOMM FM41            
1 33061U 08031B   24123.73004939  .00002176  00000+0  33307-3 0  9996
2 33061  48.4432 112.2289 0004344  59.8009 110.3027 14.77186530853913
ORBCOMM FM29            
1 33062U 08031C   24124.39135521  .00002605  00000+0  39362-3 0  9996
2 33062  48.4385 117.1338 0006159  62.2840  90.8282 14.77122539853876
ORBCOMM FM39            
1 33063U 08031D   24124.32320323  .00001937  00000+0  30693-3 0  9991
2 33063  48.4392 137.9189 0007257  36.9967 323.1446 14.76136434853598
